<xml>
<item>
<COMMENT>GENERATED VIA SPACETRACK.ORG API</COMMENT>
<ORIGINATOR>18 SPCS</ORIGINATOR>
<NORAD_CAT_ID>56780</NORAD_CAT_ID>
<OBJECT_NAME>STARLINK-5963</OBJECT_NAME>
<OBJECT_TYPE>PAYLOAD</OBJECT_TYPE>
<CLASSIFICATION_TYPE>U</CLASSIFICATION_TYPE>
<INTLDES>23078P</INTLDES>
<EPOCH>2023-11-01 12:00:00</EPOCH>
<EPOCH_MICROSECONDS>999648</EPOCH_MICROSECONDS>
<MEAN_MOTION>14.98329004</MEAN_MOTION>
<ECCENTRICITY>0.0003084</ECCENTRICITY>
<INCLINATION>70</INCLINATION>
<RA_OF_ASC_NODE>350.965</RA_OF_ASC_NODE>
<ARG_OF_PERICENTER>273.3311</ARG_OF_PERICENTER>
<MEAN_ANOMALY>226.4841</MEAN_ANOMALY>
<EPHEMERIS_TYPE>0</EPHEMERIS_TYPE>
<ELEMENT_SET_NO>999</ELEMENT_SET_NO>
<REV_AT_EPOCH>2424</REV_AT_EPOCH>
<BSTAR>0.00042946</BSTAR>
<MEAN_MOTION_DOT>0.00005035</MEAN_MOTION_DOT>
<MEAN_MOTION_DDOT>0</MEAN_MOTION_DDOT>
<FILE>4064328</FILE>
<TLE_LINE0>0 STARLINK-5963</TLE_LINE0>
<TLE_LINE1>1 56780U 23078P 23305.50001157 .00005035 00000-0 42946-3 0 9999</TLE_LINE1>
<TLE_LINE2>2 56780 70.0000 350.9650 0003084 273.3311 226.4841 14.98329004 24247</TLE_LINE2>
<OBJECT_ID>2023-078P</OBJECT_ID>
<OBJECT_NUMBER>56780</OBJECT_NUMBER>
<SEMIMAJOR_AXIS>6950.196</SEMIMAJOR_AXIS>
<PERIOD>96.107</PERIOD>
<APOGEE>574.204</APOGEE>
<PERIGEE>569.918</PERIGEE>
<DECAYED>0</DECAYED>
</item>
<item>
<COMMENT>GENERATED VIA SPACETRACK.ORG API</COMMENT>
<ORIGINATOR>18 SPCS</ORIGINATOR>
<NORAD_CAT_ID>55275</NORAD_CAT_ID>
<OBJECT_NAME>STARLINK-5260</OBJECT_NAME>
<OBJECT_TYPE>PAYLOAD</OBJECT_TYPE>
<CLASSIFICATION_TYPE>U</CLASSIFICATION_TYPE>
<INTLDES>23010G</INTLDES>
<EPOCH>2023-11-01 12:59:28</EPOCH>
<EPOCH_MICROSECONDS>434912</EPOCH_MICROSECONDS>
<MEAN_MOTION>14.98362293</MEAN_MOTION>
<ECCENTRICITY>0.0001887</ECCENTRICITY>
<INCLINATION>70</INCLINATION>
<RA_OF_ASC_NODE>30.8167</RA_OF_ASC_NODE>
<ARG_OF_PERICENTER>242.0692</ARG_OF_PERICENTER>
<MEAN_ANOMALY>118.0276</MEAN_ANOMALY>
<EPHEMERIS_TYPE>0</EPHEMERIS_TYPE>
<ELEMENT_SET_NO>999</ELEMENT_SET_NO>
<REV_AT_EPOCH>4426</REV_AT_EPOCH>
<BSTAR>0.000012129</BSTAR>
<MEAN_MOTION_DOT>0.00000052</MEAN_MOTION_DOT>
<MEAN_MOTION_DDOT>0</MEAN_MOTION_DDOT>
<FILE>4064623</FILE>
<TLE_LINE0>0 STARLINK-5260</TLE_LINE0>
<TLE_LINE1>1 55275U 23010G 23305.54130133 .00000052 00000-0 12129-4 0 9999</TLE_LINE1>
<TLE_LINE2>2 55275 70.0000 30.8167 0001887 242.0692 118.0276 14.98362293 44265</TLE_LINE2>
<OBJECT_ID>2023-010G</OBJECT_ID>
<OBJECT_NUMBER>55275</OBJECT_NUMBER>
<SEMIMAJOR_AXIS>6950.093</SEMIMAJOR_AXIS>
<PERIOD>96.105</PERIOD>
<APOGEE>573.270</APOGEE>
<PERIGEE>570.647</PERIGEE>
<DECAYED>0</DECAYED>
</item>
<item>
<COMMENT>GENERATED VIA SPACETRACK.ORG API</COMMENT>
<ORIGINATOR>18 SPCS</ORIGINATOR>
<NORAD_CAT_ID>55662</NORAD_CAT_ID>
<OBJECT_NAME>STARLINK-5479</OBJECT_NAME>
<OBJECT_TYPE>PAYLOAD</OBJECT_TYPE>
<CLASSIFICATION_TYPE>U</CLASSIFICATION_TYPE>
<INTLDES>23021AL</INTLDES>
<EPOCH>2023-11-01 13:55:55</EPOCH>
<EPOCH_MICROSECONDS>193088</EPOCH_MICROSECONDS>
<MEAN_MOTION>14.9832609</MEAN_MOTION>
<ECCENTRICITY>0.0002811</ECCENTRICITY>
<INCLINATION>70</INCLINATION>
<RA_OF_ASC_NODE>170.7765</RA_OF_ASC_NODE>
<ARG_OF_PERICENTER>267.9383</ARG_OF_PERICENTER>
<MEAN_ANOMALY>92.1454</MEAN_ANOMALY>
<EPHEMERIS_TYPE>0</EPHEMERIS_TYPE>
<ELEMENT_SET_NO>999</ELEMENT_SET_NO>
<REV_AT_EPOCH>4059</REV_AT_EPOCH>
<BSTAR>0.000056159</BSTAR>
<MEAN_MOTION_DOT>0.00000577</MEAN_MOTION_DOT>
<MEAN_MOTION_DDOT>0</MEAN_MOTION_DDOT>
<FILE>4064888</FILE>
<TLE_LINE0>0 STARLINK-5479</TLE_LINE0>
<TLE_LINE1>1 55662U 23021AL 23305.58049992 .00000577 00000-0 56159-4 0 9990</TLE_LINE1>
<TLE_LINE2>2 55662 70.0000 170.7765 0002811 267.9383 92.1454 14.98326090 40591</TLE_LINE2>
<OBJECT_ID>2023-021AL</OBJECT_ID>
<OBJECT_NUMBER>55662</OBJECT_NUMBER>
<SEMIMAJOR_AXIS>6950.205</SEMIMAJOR_AXIS>
<PERIOD>96.107</PERIOD>
<APOGEE>574.024</APOGEE>
<PERIGEE>570.116</PERIGEE>
<DECAYED>0</DECAYED>
</item>
<item>
<COMMENT>GENERATED VIA SPACETRACK.ORG API</COMMENT>
<ORIGINATOR>18 SPCS</ORIGINATOR>
<NORAD_CAT_ID>55289</NORAD_CAT_ID>
<OBJECT_NAME>STARLINK-5320</OBJECT_NAME>
<OBJECT_TYPE>PAYLOAD</OBJECT_TYPE>
<CLASSIFICATION_TYPE>U</CLASSIFICATION_TYPE>
<INTLDES>23010W</INTLDES>
<EPOCH>2023-11-01 14:23:37</EPOCH>
<EPOCH_MICROSECONDS>959360</EPOCH_MICROSECONDS>
<MEAN_MOTION>14.98317189</MEAN_MOTION>
<ECCENTRICITY>0.0002687</ECCENTRICITY>
<INCLINATION>70</INCLINATION>
<RA_OF_ASC_NODE>30.6185</RA_OF_ASC_NODE>
<ARG_OF_PERICENTER>263.434</ARG_OF_PERICENTER>
<MEAN_ANOMALY>96.6513</MEAN_ANOMALY>
<EPHEMERIS_TYPE>0</EPHEMERIS_TYPE>
<ELEMENT_SET_NO>999</ELEMENT_SET_NO>
<REV_AT_EPOCH>4458</REV_AT_EPOCH>
<BSTAR>0.000077667</BSTAR>
<MEAN_MOTION_DOT>0.00000834</MEAN_MOTION_DOT>
<MEAN_MOTION_DDOT>0</MEAN_MOTION_DDOT>
<FILE>4064888</FILE>
<TLE_LINE0>0 STARLINK-5320</TLE_LINE0>
<TLE_LINE1>1 55289U 23010W 23305.59974490 .00000834 00000-0 77667-4 0 9997</TLE_LINE1>
<TLE_LINE2>2 55289 70.0000 30.6185 0002687 263.4340 96.6513 14.98317189 44588</TLE_LINE2>
<OBJECT_ID>2023-010W</OBJECT_ID>
<OBJECT_NUMBER>55289</OBJECT_NUMBER>
<SEMIMAJOR_AXIS>6950.233</SEMIMAJOR_AXIS>
<PERIOD>96.108</PERIOD>
<APOGEE>573.965</APOGEE>
<PERIGEE>570.230</PERIGEE>
<DECAYED>0</DECAYED>
</item>
<item>
<COMMENT>GENERATED VIA SPACETRACK.ORG API</COMMENT>
<ORIGINATOR>18 SPCS</ORIGINATOR>
<NORAD_CAT_ID>49142</NORAD_CAT_ID>
<OBJECT_NAME>STARLINK-3042</OBJECT_NAME>
<OBJECT_TYPE>PAYLOAD</OBJECT_TYPE>
<CLASSIFICATION_TYPE>U</CLASSIFICATION_TYPE>
<INTLDES>21082N</INTLDES>
<EPOCH>2023-11-01 14:24:26</EPOCH>
<EPOCH_MICROSECONDS>351136</EPOCH_MICROSECONDS>
<MEAN_MOTION>14.98329799</MEAN_MOTION>
<ECCENTRICITY>0.0002798</ECCENTRICITY>
<INCLINATION>70</INCLINATION>
<RA_OF_ASC_NODE>260.5212</RA_OF_ASC_NODE>
<ARG_OF_PERICENTER>270.4558</ARG_OF_PERICENTER>
<MEAN_ANOMALY>89.628</MEAN_ANOMALY>
<EPHEMERIS_TYPE>0</EPHEMERIS_TYPE>
<ELEMENT_SET_NO>999</ELEMENT_SET_NO>
<REV_AT_EPOCH>11828</REV_AT_EPOCH>
<BSTAR>0.00011754</BSTAR>
<MEAN_MOTION_DOT>0.0000131</MEAN_MOTION_DOT>
<MEAN_MOTION_DDOT>0</MEAN_MOTION_DDOT>
<FILE>4064888</FILE>
<TLE_LINE0>0 STARLINK-3042</TLE_LINE0>
<TLE_LINE1>1 49142U 21082N 23305.60030499 .00001310 00000-0 11754-3 0 9993</TLE_LINE1>
<TLE_LINE2>2 49142 70.0000 260.5212 0002798 270.4558 89.6280 14.98329799118288</TLE_LINE2>
<OBJECT_ID>2021-082N</OBJECT_ID>
<OBJECT_NUMBER>49142</OBJECT_NUMBER>
<SEMIMAJOR_AXIS>6950.194</SEMIMAJOR_AXIS>
<PERIOD>96.107</PERIOD>
<APOGEE>574.003</APOGEE>
<PERIGEE>570.114</PERIGEE>
<DECAYED>0</DECAYED>
</item>
<item>
<COMMENT>GENERATED VIA SPACETRACK.ORG API</COMMENT>
<ORIGINATOR>18 SPCS</ORIGINATOR>
<NORAD_CAT_ID>55413</NORAD_CAT_ID>
<OBJECT_NAME>STARLINK-5060</OBJECT_NAME>
<OBJECT_TYPE>PAYLOAD</OBJECT_TYPE>
<CLASSIFICATION_TYPE>U</CLASSIFICATION_TYPE>
<INTLDES>23014Y</INTLDES>
<EPOCH>2023-11-01 14:24:34</EPOCH>
<EPOCH_MICROSECONDS>933248</EPOCH_MICROSECONDS>
<MEAN_MOTION>14.98326993</MEAN_MOTION>
<ECCENTRICITY>0.0002976</ECCENTRICITY>
<INCLINATION>70</INCLINATION>
<RA_OF_ASC_NODE>90.3388</RA_OF_ASC_NODE>
<ARG_OF_PERICENTER>267.606</ARG_OF_PERICENTER>
<MEAN_ANOMALY>92.4758</MEAN_ANOMALY>
<EPHEMERIS_TYPE>0</EPHEMERIS_TYPE>
<ELEMENT_SET_NO>999</ELEMENT_SET_NO>
<REV_AT_EPOCH>4288</REV_AT_EPOCH>
<BSTAR>0.000042612</BSTAR>
<MEAN_MOTION_DOT>0.00000415</MEAN_MOTION_DOT>
<MEAN_MOTION_DDOT>0</MEAN_MOTION_DDOT>
<FILE>4064888</FILE>
<TLE_LINE0>0 STARLINK-5060</TLE_LINE0>
<TLE_LINE1>1 55413U 23014Y 23305.60040432 .00000415 00000-0 42612-4 0 9999</TLE_LINE1>
<TLE_LINE2>2 55413 70.0000 90.3388 0002976 267.6060 92.4758 14.98326993 42880</TLE_LINE2>
<OBJECT_ID>2023-014Y</OBJECT_ID>
<OBJECT_NUMBER>55413</OBJECT_NUMBER>
<SEMIMAJOR_AXIS>6950.202</SEMIMAJOR_AXIS>
<PERIOD>96.107</PERIOD>
<APOGEE>574.136</APOGEE>
<PERIGEE>569.999</PERIGEE>
<DECAYED>0</DECAYED>
</item>
<item>
<COMMENT>GENERATED VIA SPACETRACK.ORG API</COMMENT>
<ORIGINATOR>18 SPCS</ORIGINATOR>
<NORAD_CAT_ID>55422</NORAD_CAT_ID>
<OBJECT_NAME>STARLINK-5006</OBJECT_NAME>
<OBJECT_TYPE>PAYLOAD</OBJECT_TYPE>
<CLASSIFICATION_TYPE>U</CLASSIFICATION_TYPE>
<INTLDES>23014AH</INTLDES>
<EPOCH>2023-11-01 14:36:36</EPOCH>
<EPOCH_MICROSECONDS>926208</EPOCH_MICROSECONDS>
<MEAN_MOTION>14.98316592</MEAN_MOTION>
<ECCENTRICITY>0.000309</ECCENTRICITY>
<INCLINATION>70</INCLINATION>
<RA_OF_ASC_NODE>90.3624</RA_OF_ASC_NODE>
<ARG_OF_PERICENTER>268.9312</ARG_OF_PERICENTER>
<MEAN_ANOMALY>91.1493</MEAN_ANOMALY>
<EPHEMERIS_TYPE>0</EPHEMERIS_TYPE>
<ELEMENT_SET_NO>999</ELEMENT_SET_NO>
<REV_AT_EPOCH>4288</REV_AT_EPOCH>
<BSTAR>0.000035521</BSTAR>
<MEAN_MOTION_DOT>0.00000331</MEAN_MOTION_DOT>
<MEAN_MOTION_DDOT>0</MEAN_MOTION_DDOT>
<FILE>4064888</FILE>
<TLE_LINE0>0 STARLINK-5006</TLE_LINE0>
<TLE_LINE1>1 55422U 23014AH 23305.60876072 .00000331 00000-0 35521-4 0 9994</TLE_LINE1>
<TLE_LINE2>2 55422 70.0000 90.3624 0003090 268.9312 91.1493 14.98316592 42881</TLE_LINE2>
<OBJECT_ID>2023-014AH</OBJECT_ID>
<OBJECT_NUMBER>55422</OBJECT_NUMBER>
<SEMIMAJOR_AXIS>6950.234</SEMIMAJOR_AXIS>
<PERIOD>96.108</PERIOD>
<APOGEE>574.247</APOGEE>
<PERIGEE>569.952</PERIGEE>
<DECAYED>0</DECAYED>
</item>

</xml>
